IRIDIUM 116             
1 43072U 17083C   24101.06315439  .00000114  00000+0  33608-4 0  9993
2 43072  86.3913 295.5671 0001991  86.6382 273.5042 14.34215095329771
IRIDIUM 130             
1 43073U 17083D   24101.51982013  .00000097  00000+0  27457-4 0  9997
2 43073  86.3921 295.5741 0002267  88.2499 271.8957 14.34215940329789
IRIDIUM 151             
1 43074U 17083E   24101.07583601  .00000109  00000+0  31794-4 0  9992
2 43074  86.3915 295.6015 0001913 100.6282 259.5129 14.34216363329744
IRIDIUM 134             
1 43075U 17083F   24100.83481513  .00000116  00000+0  34316-4 0  9996
2 43075  86.3917 295.6998 0002261  86.1344 274.0110 14.34216157329676
IRIDIUM 137             
1 43076U 17083G   24101.05680666  .00000112  00000+0  32761-4 0  9990
2 43076  86.3918 295.6836 0001642  90.1363 270.0021 14.34215929329771
IRIDIUM 141             
1 43077U 17083H   24101.53883159  .00000125  00000+0  37566-4 0  9998
2 43077  86.3913 295.3574 0002134  92.4377 267.7063 14.34218610329847
IRIDIUM 153             
1 43078U 17083J   24100.72355745  .00000123  00000+0  36953-4 0  9991
2 43078  86.3923 264.1273 0002379 103.6024 256.5437 14.34217441330837
IRIDIUM 131             
1 43079U 17083K   24101.52616135  .00000104  00000+0  30154-4 0  9990
2 43079  86.3918 295.4958 0001974  91.4098 268.7324 14.34215957329775
